[{"OBJECT_NAME":"MBZ-SAT","OBJECT_ID":"2025-009T","EPOCH":"2026-03-09T17:04:51.088224","MEAN_MOTION":15.18507845,"ECCENTRICITY":0.00021634,"INCLINATION":97.403,"RA_OF_ASC_NODE":149.1701,"ARG_OF_PERICENTER":323.4829,"MEAN_ANOMALY":36.6257,"EPHEMERIS_TYPE":0,"CLASSIFICATION_TYPE":"U","NORAD_CAT_ID":62626,"ELEMENT_SET_NO":999,"REV_AT_EPOCH":6359,"BSTAR":3.31466e-7,"MEAN_MOTION_DOT":-5.9e-7,"MEAN_MOTION_DDOT":0},{"OBJECT_NAME":"OBJECT F","OBJECT_ID":"2025-055F","EPOCH":"2026-03-09T23:18:16.432128","MEAN_MOTION":15.14826081,"ECCENTRICITY":0.00132444,"INCLINATION":97.6376,"RA_OF_ASC_NODE":208.0739,"ARG_OF_PERICENTER":110.0651,"MEAN_ANOMALY":250.2008,"EPHEMERIS_TYPE":0,"CLASSIFICATION_TYPE":"U","NORAD_CAT_ID":63296,"ELEMENT_SET_NO":999,"REV_AT_EPOCH":5397,"BSTAR":0.00069816497,"MEAN_MOTION_DOT":0.00012945,"MEAN_MOTION_DDOT":0}]
